OBJECT_NAME,OBJECT_ID,EPOCH,MEAN_MOTION,ECCENTRICITY,INCLINATION,RA_OF_ASC_NODE,ARG_OF_PERICENTER,MEAN_ANOMALY,EPHEMERIS_TYPE,CLASSIFICATION_TYPE,NORAD_CAT_ID,ELEMENT_SET_NO,REV_AT_EPOCH,BSTAR,MEAN_MOTION_DOT,MEAN_MOTION_DDOT
GSAT0225 (GALILEO 29),2024-079A,2026-06-23T14:14:59.594784,1.70474099,.00017064,55.1233,100.9008,299.0990,258.4278,0,U,59598,999,1342,0,-.34E-6,0
GSAT0227 (GALILEO 30),2024-079C,2026-06-23T10:55:38.202528,1.70473918,.00024194,55.1185,100.9033,58.0764,301.9236,0,U,59600,999,1347,0,-.33E-6,0
GSAT0232 (GALILEO 32),2024-167A,2026-06-23T16:25:11.569152,1.70474403,.00062446,55.1833,221.1353,229.3467,126.7036,0,U,61182,999,1098,0,.46E-6,0
GSAT0226 (GALILEO 31),2024-167B,2026-06-24T03:55:38.057952,1.70474440,.0002945,55.1820,221.1292,231.0291,150.6225,0,U,61183,999,1097,0,.5E-6,0
BEIDOU-3 M25 (C47),2024-168B,2026-06-23T23:47:11.954976,1.86230274,.00030803,54.4667,302.0055,299.6481,120.0107,0,U,61186,999,1191,0,-.109E-5,0
BEIDOU-3 M27 (C49),2024-168C,2026-06-23T16:47:28.840704,1.86230327,.00014704,54.4622,301.9985,49.4418,309.8302,0,U,61187,999,937,0,-.109E-5,0
GPS BIII-7  (PRN 01),2024-242A,2026-06-25T01:40:29.641728,2.00571971,.0017673,54.8458,333.8613,4.5649,176.3126,0,U,62339,999,1141,0,-.106E-5,0
QZS-6 (QZSS/PRN 200),2025-023A,2026-06-24T23:20:26.700000,1.00273359,.0001949,0.0585,280.1320,187.4168,246.1806,0,U,62876,999,502,0,-.224E-5,0
COSMOS 2584 (704K),2025-042A,2026-06-23T05:46:26.241600,2.13103825,.00065986,65.0880,72.5961,228.8314,131.1446,0,U,63130,999,1017,0,-.67E-6,0
GPS BIII-8  (PRN 21),2025-116A,2026-06-23T19:34:47.305056,2.00575606,.00082866,55.2396,30.8630,339.1810,199.1690,0,U,64202,999,800,0,-.98E-6,0
COSMOS 2596 (708K),2025-206B,2026-06-24T23:11:42.537984,2.13100978,.0011009,64.6296,314.7142,310.6805,49.5796,0,U,65590,999,608,0,-.86E-6,0
GSAT0233 (GALILEO 33),2025-302A,2026-06-19T13:54:53.251200,1.70473973,.00007672,54.3370,102.0625,220.2514,324.6772,0,U,67160,999,316,0,-.13E-6,0
GSAT0234 (GALILEO 34),2025-302C,2026-06-20T10:43:51.885120,1.70474042,.00028893,54.3393,102.0369,311.1148,226.2302,0,U,67162,999,323,0,-.15E-6,0
GPS BIII-9  (PRN 20),2026-017A,2026-06-24T16:13:01.605792,2.00571052,.0021856,55.0929,88.4546,258.9107,100.8448,0,U,67588,999,43176,0,-.66E-6,0
GPS BIII-10 (PRN 13),2026-087A,2026-06-22T15:38:01.863744,2.00570839,.00206819,54.9627,207.5713,106.6591,76.9843,0,U,68791,999,94,0,.58E-6,0
